start=new Date('2023-05-05T00:00:00.000Z').valueOf();
sats=[{"MEAN_ELEMENT_THEORY":"SGP4","ARG_OF_PERICENTER":"48.4637","TLE_LINE2":"2 46560  53.0403 101.5765 0006649  48.4637 291.2575 15.80661862143675","APOAPSIS":"333.029","MEAN_MOTION_DDOT":"0.0000000000000","OBJECT_TYPE":"PAYLOAD","RA_OF_ASC_NODE":"101.5765","TLE_LINE1":"1 46560U 20070AE  23125.08334491  .00190131  00000-0  95378-3 0  9995","ECCENTRICITY":"0.00066490","INCLINATION":"53.0403","GP_ID":"231248448","REV_AT_EPOCH":"14367","TIME_SYSTEM":"UTC","PERIAPSIS":"324.111","EPOCH":"2023-05-05T02:00:01.000224","LAUNCH_DATE":"2020-10-06","CENTER_NAME":"EARTH","OBJECT_ID":"2020-070AE","COUNTRY_CODE":"US","NORAD_CAT_ID":"46560","MEAN_MOTION":"15.80661862","BSTAR":"0.00095378000000","REF_FRAME":"TEME","MEAN_ANOMALY":"291.2575","DECAY_DATE":null,"SEMIMAJOR_AXIS":"6706.705","MEAN_MOTION_DOT":"0.00190131","RCS_SIZE":"LARGE","FILE":"3901133","ELEMENT_SET_NO":"999","EPHEMERIS_TYPE":"0","OBJECT_NAME":"STARLINK-1706","PERIOD":"91.101","SITE":"AFETR","CLASSIFICATION_TYPE":"U"},{"MEAN_MOTION_DOT":"-0.00001671","SEMIMAJOR_AXIS":"6925.363","MEAN_ANOMALY":"264.2565","DECAY_DATE":null,"BSTAR":"-0.00009329500000","REF_FRAME":"TEME","NORAD_CAT_ID":"46561","MEAN_MOTION":"15.06395355","SITE":"AFETR","CLASSIFICATION_TYPE":"U","OBJECT_NAME":"STARLINK-1709","PERIOD":"95.592","ELEMENT_SET_NO":"999","EPHEMERIS_TYPE":"0","FILE":"3900892","RCS_SIZE":"LARGE","APOAPSIS":"548.139","TLE_LINE2":"2 46561  53.0523 151.4915 0001316  95.8574 264.2565 15.06395355142927","ARG_OF_PERICENTER":"95.8574","MEAN_ELEMENT_THEORY":"SGP4","COUNTRY_CODE":"US","CENTER_NAME":"EARTH","OBJECT_ID":"2020-070AF","LAUNCH_DATE":"2020-10-06","REV_AT_EPOCH":"14292","TIME_SYSTEM":"UTC","EPOCH":"2023-05-04T10:39:16.059168","PERIAPSIS":"546.316","ECCENTRICITY":"0.00013160","TLE_LINE1":"1 46561U 20070AF  23124.44393587 -.00001671  00000-0 -93295-4 0  9995","INCLINATION":"53.0523","GP_ID":"231235253","OBJECT_TYPE":"PAYLOAD","RA_OF_ASC_NODE":"151.4915","MEAN_MOTION_DDOT":"0.0000000000000"},{"BSTAR":"-0.00012635000000","REF_FRAME":"TEME","NORAD_CAT_ID":"46562","MEAN_MOTION":"15.06401976","MEAN_ANOMALY":"269.5497","DECAY_DATE":null,"MEAN_MOTION_DOT":"-0.00002163","SEMIMAJOR_AXIS":"6925.343","FILE":"3900892","RCS_SIZE":"LARGE","OBJECT_NAME":"STARLINK-1714","PERIOD":"95.592","ELEMENT_SET_NO":"999","EPHEMERIS_TYPE":"0","SITE":"AFETR","CLASSIFICATION_TYPE":"U","MEAN_ELEMENT_THEORY":"SGP4","ARG_OF_PERICENTER":"90.5643","TLE_LINE2":"2 46562  53.0521 146.4598 0001312  90.5643 269.5497 15.06401976142998","APOAPSIS":"548.116","OBJECT_TYPE":"PAYLOAD","RA_OF_ASC_NODE":"146.4598","MEAN_MOTION_DDOT":"0.0000000000000","REV_AT_EPOCH":"14299","TIME_SYSTEM":"UTC","EPOCH":"2023-05-04T10:37:16.675968","PERIAPSIS":"546.299","TLE_LINE1":"1 46562U 20070AG  23124.44255412 -.00002163  00000-0 -12635-3 0  9995","INCLINATION":"53.0521","ECCENTRICITY":"0.00013120","GP_ID":"231236005","CENTER_NAME":"EARTH","OBJECT_ID":"2020-070AG","LAUNCH_DATE":"2020-10-06","COUNTRY_CODE":"US"},{"NORAD_CAT_ID":"46563","MEAN_MOTION":"15.06395423","BSTAR":"-0.00010776000000","REF_FRAME":"TEME","MEAN_ANOMALY":"260.0715","DECAY_DATE":null,"SEMIMAJOR_AXIS":"6925.363","MEAN_MOTION_DOT":"-0.00001886","RCS_SIZE":"LARGE","FILE":"3900892","ELEMENT_SET_NO":"999","EPHEMERIS_TYPE":"0","OBJECT_NAME":"STARLINK-1730","PERIOD":"95.592","SITE":"AFETR","CLASSIFICATION_TYPE":"U","MEAN_ELEMENT_THEORY":"SGP4","ARG_OF_PERICENTER":"100.0450","TLE_LINE2":"2 46563  53.0520 146.5422 0001558 100.0450 260.0715 15.06395423142998","APOAPSIS":"548.307","MEAN_MOTION_DDOT":"0.0000000000000","OBJECT_TYPE":"PAYLOAD","RA_OF_ASC_NODE":"146.5422","TLE_LINE1":"1 46563U 20070AH  23124.42506868 -.00001886  00000-0 -10776-3 0  9993","ECCENTRICITY":"0.00015580","INCLINATION":"53.0520","GP_ID":"231236749","TIME_SYSTEM":"UTC","REV_AT_EPOCH":"14299","PERIAPSIS":"546.149","EPOCH":"2023-05-04T10:12:05.933952","LAUNCH_DATE":"2020-10-06","CENTER_NAME":"EARTH","OBJECT_ID":"2020-070AH","COUNTRY_CODE":"US"},{"SITE":"AFETR","CLASSIFICATION_TYPE":"U","PERIOD":"95.592","OBJECT_NAME":"STARLINK-1733","EPHEMERIS_TYPE":"0","ELEMENT_SET_NO":"999","FILE":"3900892","RCS_SIZE":"LARGE","MEAN_MOTION_DOT":"0.00000510","SEMIMAJOR_AXIS":"6925.349","DECAY_DATE":null,"MEAN_ANOMALY":"269.5890","REF_FRAME":"TEME","BSTAR":"0.00005311900000","MEAN_MOTION":"15.06400002","NORAD_CAT_ID":"46564","COUNTRY_CODE":"US","OBJECT_ID":"2020-070AJ","CENTER_NAME":"EARTH","LAUNCH_DATE":"2020-10-06","PERIAPSIS":"546.252","EPOCH":"2023-05-04T11:21:05.850432","REV_AT_EPOCH":"14300","TIME_SYSTEM":"UTC","GP_ID":"231235506","INCLINATION":"53.0528","TLE_LINE1":"1 46564U 20070AJ  23124.47298438  .00000510  00000-0  53119-4 0  9990","ECCENTRICITY":"0.00013880","RA_OF_ASC_NODE":"146.3341","OBJECT_TYPE":"PAYLOAD","MEAN_MOTION_DDOT":"0.0000000000000","APOAPSIS":"548.175","TLE_LINE2":"2 46564  53.0528 146.3341 0001388  90.5258 269.5890 15.06400002143006","ARG_OF_PERICENTER":"90.5258","MEAN_ELEMENT_THEORY":"SGP4"},{"CLASSIFICATION_TYPE":"U","SITE":"AFETR","ELEMENT_SET_NO":"999","EPHEMERIS_TYPE":"0","OBJECT_NAME":"STARLINK-1735","PERIOD":"95.592","RCS_SIZE":"LARGE","FILE":"3901186","SEMIMAJOR_AXIS":"6925.353","MEAN_MOTION_DOT":"0.00000464","MEAN_ANOMALY":"264.3298","DECAY_DATE":null,"NORAD_CAT_ID":"46565","MEAN_MOTION":"15.06398592","BSTAR":"0.00005004700000","REF_FRAME":"TEME","COUNTRY_CODE":"US","LAUNCH_DATE":"2020-10-06","CENTER_NAME":"EARTH","OBJECT_ID":"2020-070AK","ECCENTRICITY":"0.00013550","TLE_LINE1":"1 46565U 20070AK  23124.78260730  .00000464  00000-0  50047-4 0  9994","INCLINATION":"53.0527","GP_ID":"231269810","TIME_SYSTEM":"UTC","REV_AT_EPOCH":"14304","EPOCH":"2023-05-04T18:46:57.270720","PERIAPSIS":"546.279","MEAN_MOTION_DDOT":"0.0000000000000","OBJECT_TYPE":"PAYLOAD","RA_OF_ASC_NODE":"144.9399","APOAPSIS":"548.156","TLE_LINE2":"2 46565  53.0527 144.9399 0001355  95.7845 264.3298 15.06398592143045","ARG_OF_PERICENTER":"95.7845","MEAN_ELEMENT_THEORY":"SGP4"},{"LAUNCH_DATE":"2020-10-06","OBJECT_ID":"2020-070AL","CENTER_NAME":"EARTH","COUNTRY_CODE":"US","MEAN_MOTION_DDOT":"0.0000000000000","RA_OF_ASC_NODE":"146.4961","OBJECT_TYPE":"PAYLOAD","GP_ID":"231236506","INCLINATION":"53.0527","TLE_LINE1":"1 46566U 20070AL  23124.43613231  .00000286  00000-0  38066-4 0  9994","ECCENTRICITY":"0.00013550","EPOCH":"2023-05-04T10:28:01.831584","PERIAPSIS":"546.291","TIME_SYSTEM":"UTC","REV_AT_EPOCH":"14299","TLE_LINE2":"2 46566  53.0527 146.4961 0001355  98.2704 261.8439 15.06394804142994","APOAPSIS":"548.168","MEAN_ELEMENT_THEORY":"SGP4","ARG_OF_PERICENTER":"98.2704","SITE":"AFETR","CLASSIFICATION_TYPE":"U","RCS_SIZE":"LARGE","FILE":"3900892","EPHEMERIS_TYPE":"0","ELEMENT_SET_NO":"999","PERIOD":"95.592","OBJECT_NAME":"STARLINK-1740","DECAY_DATE":null,"MEAN_ANOMALY":"261.8439","SEMIMAJOR_AXIS":"6925.364","MEAN_MOTION_DOT":"0.00000286","MEAN_MOTION":"15.06394804","NORAD_CAT_ID":"46566","REF_FRAME":"TEME","BSTAR":"0.00003806600000"},{"REF_FRAME":"TEME","BSTAR":"0.00001383900000","MEAN_MOTION":"15.06391413","NORAD_CAT_ID":"46567","DECAY_DATE":null,"MEAN_ANOMALY":"286.1441","MEAN_MOTION_DOT":"-0.00000075","SEMIMAJOR_AXIS":"6925.375","FILE":"3900892","RCS_SIZE":"LARGE","PERIOD":"95.593","OBJECT_NAME":"STARLINK-1741","EPHEMERIS_TYPE":"0","ELEMENT_SET_NO":"999","SITE":"AFETR","CLASSIFICATION_TYPE":"U","MEAN_ELEMENT_THEORY":"SGP4","ARG_OF_PERICENTER":"73.9686","TLE_LINE2":"2 46567  53.0510 146.3666 0001255  73.9686 286.1441 15.06391413143005","APOAPSIS":"548.109","RA_OF_ASC_NODE":"146.3666","OBJECT_TYPE":"PAYLOAD","MEAN_MOTION_DDOT":"0.0000000000000","PERIAPSIS":"546.371","EPOCH":"2023-05-04T11:10:29.319168","REV_AT_EPOCH":"14300","TIME_SYSTEM":"UTC","GP_ID":"231236249","TLE_LINE1":"1 46567U 20070AM  23124.46561712 -.00000075  00000-0  13839-4 0  9992","INCLINATION":"53.0510","ECCENTRICITY":"0.00012550","OBJECT_ID":"2020-070AM","CENTER_NAME":"EARTH","LAUNCH_DATE":"2020-10-06","COUNTRY_CODE":"US"},{"MEAN_MOTION_DDOT":"0.0000000000000","OBJECT_TYPE":"PAYLOAD","RA_OF_ASC_NODE":"146.2939","INCLINATION":"53.0529","TLE_LINE1":"1 46569U 20070AP  23124.48035907 -.00000433  00000-0 -10167-4 0  9998","ECCENTRICITY":"0.00013000","GP_ID":"231235006","REV_AT_EPOCH":"14300","TIME_SYSTEM":"UTC","EPOCH":"2023-05-04T11:31:43.023648","PERIAPSIS":"546.324","LAUNCH_DATE":"2020-10-06","CENTER_NAME":"EARTH","OBJECT_ID":"2020-070AP","COUNTRY_CODE":"US","MEAN_ELEMENT_THEORY":"SGP4","ARG_OF_PERICENTER":"93.1291","TLE_LINE2":"2 46569  53.0529 146.2939 0001300  93.1291 266.9847 15.06396394143005","APOAPSIS":"548.125","RCS_SIZE":"LARGE","FILE":"3900892","ELEMENT_SET_NO":"999","EPHEMERIS_TYPE":"0","OBJECT_NAME":"STARLINK-1747","PERIOD":"95.592","CLASSIFICATION_TYPE":"U","SITE":"AFETR","NORAD_CAT_ID":"46569","MEAN_MOTION":"15.06396394","BSTAR":"-0.00001016700000","REF_FRAME":"TEME","MEAN_ANOMALY":"266.9847","DECAY_DATE":null,"SEMIMAJOR_AXIS":"6925.360","MEAN_MOTION_DOT":"-0.00000433"},{"MEAN_ANOMALY":"48.8558","DECAY_DATE":null,"SEMIMAJOR_AXIS":"6876.336","MEAN_MOTION_DOT":"0.00011100","NORAD_CAT_ID":"46570","MEAN_MOTION":"15.22534592","BSTAR":"0.00048586000000","REF_FRAME":"TEME","SITE":"AFETR","CLASSIFICATION_TYPE":"U","RCS_SIZE":"LARGE","FILE":"3901137","ELEMENT_SET_NO":"999","EPHEMERIS_TYPE":"0","OBJECT_NAME":"STARLINK-1748","PERIOD":"94.579","TLE_LINE2":"2 46570  53.0372 126.2873 0002324 311.2237  48.8558 15.22534592143344","APOAPSIS":"499.799","MEAN_ELEMENT_THEORY":"SGP4","ARG_OF_PERICENTER":"311.2237","LAUNCH_DATE":"2020-10-06","CENTER_NAME":"EARTH","OBJECT_ID":"2020-070AQ","COUNTRY_CODE":"US","MEAN_MOTION_DDOT":"0.0000000000000","OBJECT_TYPE":"PAYLOAD","RA_OF_ASC_NODE":"126.2873","TLE_LINE1":"1 46570U 20070AQ  23125.04376672  .00011100  00000-0  48586-3 0  9996","INCLINATION":"53.0372","ECCENTRICITY":"0.00023240","GP_ID":"231248502","TIME_SYSTEM":"UTC","REV_AT_EPOCH":"14334","EPOCH":"2023-05-05T01:03:01.444608","PERIAPSIS":"496.603"}];
